[
  {
    "COMMENT": "GENERATED VIA SPACETRACK.ORG API",
    "ORIGINATOR": "18 SPCS",
    "NORAD_CAT_ID": "48621",
    "OBJECT_NAME": "HAIYANG 2D",
    "OBJECT_TYPE": "PAYLOAD",
    "CLASSIFICATION_TYPE": "U",
    "INTLDES": "21043A",
    "EPOCH": "2022-06-06 03:41:35",
    "EPOCH_MICROSECONDS": "294208",
    "MEAN_MOTION": "13.83362211",
    "ECCENTRICITY": "0.0010569",
    "INCLINATION": "65.9984",
    "RA_OF_ASC_NODE": "9.5598",
    "ARG_OF_PERICENTER": "278.8123",
    "MEAN_ANOMALY": "81.1752",
    "EPHEMERIS_TYPE": "0",
    "ELEMENT_SET_NO": "999",
    "REV_AT_EPOCH": "5297",
    "BSTAR": "0.000052693",
    "MEAN_MOTION_DOT": "-0.00000023",
    "MEAN_MOTION_DDOT": "0",
    "FILE": "3483392",
    "TLE_LINE0": "0 HAIYANG 2D",
    "TLE_LINE1": "1 48621U 21043A   22157.15388072 -.00000023  00000-0  52693-4 0  9997",
    "TLE_LINE2": "2 48621  65.9984   9.5598 0010569 278.8123  81.1752 13.83362211 52979",
    "OBJECT_ID": "2021-043A",
    "OBJECT_NUMBER": "48621",
    "SEMIMAJOR_AXIS": "7330.123",
    "PERIOD": "104.094",
    "APOGEE": "959.735",
    "PERIGEE": "944.240",
    "DECAYED": "0"
  },
  {
    "COMMENT": "GENERATED VIA SPACETRACK.ORG API",
    "ORIGINATOR": "18 SPCS",
    "NORAD_CAT_ID": "48621",
    "OBJECT_NAME": "HAIYANG 2D",
    "OBJECT_TYPE": "PAYLOAD",
    "CLASSIFICATION_TYPE": "U",
    "INTLDES": "21043A",
    "EPOCH": "2022-06-06 12:22:06",
    "EPOCH_MICROSECONDS": "900960",
    "MEAN_MOTION": "13.83362214",
    "ECCENTRICITY": "0.0010584",
    "INCLINATION": "65.9983",
    "RA_OF_ASC_NODE": "8.6599",
    "ARG_OF_PERICENTER": "278.7596",
    "MEAN_ANOMALY": "81.2274",
    "EPHEMERIS_TYPE": "0",
    "ELEMENT_SET_NO": "999",
    "REV_AT_EPOCH": "5302",
    "BSTAR": "0.000050332",
    "MEAN_MOTION_DOT": "-0.00000026",
    "MEAN_MOTION_DDOT": "0",
    "FILE": "3483929",
    "TLE_LINE0": "0 HAIYANG 2D",
    "TLE_LINE1": "1 48621U 21043A   22157.51535765 -.00000026  00000-0  50332-4 0  9991",
    "TLE_LINE2": "2 48621  65.9983   8.6599 0010584 278.7596  81.2274 13.83362214 53029",
    "OBJECT_ID": "2021-043A",
    "OBJECT_NUMBER": "48621",
    "SEMIMAJOR_AXIS": "7330.123",
    "PERIOD": "104.094",
    "APOGEE": "959.746",
    "PERIGEE": "944.229",
    "DECAYED": "0"
  },
  {
    "COMMENT": "GENERATED VIA SPACETRACK.ORG API",
    "ORIGINATOR": "18 SPCS",
    "NORAD_CAT_ID": "48621",
    "OBJECT_NAME": "HAIYANG 2D",
    "OBJECT_TYPE": "PAYLOAD",
    "CLASSIFICATION_TYPE": "U",
    "INTLDES": "21043A",
    "EPOCH": "2022-06-06 12:22:06",
    "EPOCH_MICROSECONDS": "900960",
    "MEAN_MOTION": "13.83362214",
    "ECCENTRICITY": "0.0010584",
    "INCLINATION": "65.9983",
    "RA_OF_ASC_NODE": "8.6599",
    "ARG_OF_PERICENTER": "278.7596",
    "MEAN_ANOMALY": "81.2274",
    "EPHEMERIS_TYPE": "0",
    "ELEMENT_SET_NO": "999",
    "REV_AT_EPOCH": "5302",
    "BSTAR": "0.000050332",
    "MEAN_MOTION_DOT": "-0.00000026",
    "MEAN_MOTION_DDOT": "0",
    "FILE": "3484104",
    "TLE_LINE0": "0 HAIYANG 2D",
    "TLE_LINE1": "1 48621U 21043A   22157.51535765 -.00000026  00000-0  50332-4 0  9991",
    "TLE_LINE2": "2 48621  65.9983   8.6599 0010584 278.7596  81.2274 13.83362214 53029",
    "OBJECT_ID": "2021-043A",
    "OBJECT_NUMBER": "48621",
    "SEMIMAJOR_AXIS": "7330.123",
    "PERIOD": "104.094",
    "APOGEE": "959.746",
    "PERIGEE": "944.229",
    "DECAYED": "0"
  },
  {
    "COMMENT": "GENERATED VIA SPACETRACK.ORG API",
    "ORIGINATOR": "18 SPCS",
    "NORAD_CAT_ID": "48621",
    "OBJECT_NAME": "HAIYANG 2D",
    "OBJECT_TYPE": "PAYLOAD",
    "CLASSIFICATION_TYPE": "U",
    "INTLDES": "21043A",
    "EPOCH": "2022-06-06 21:02:38",
    "EPOCH_MICROSECONDS": "520672",
    "MEAN_MOTION": "13.83362196",
    "ECCENTRICITY": "0.0010581",
    "INCLINATION": "65.9983",
    "RA_OF_ASC_NODE": "7.7597",
    "ARG_OF_PERICENTER": "278.727",
    "MEAN_ANOMALY": "81.2598",
    "EPHEMERIS_TYPE": "0",
    "ELEMENT_SET_NO": "999",
    "REV_AT_EPOCH": "5307",
    "BSTAR": "0.000048214",
    "MEAN_MOTION_DOT": "-0.00000028",
    "MEAN_MOTION_DDOT": "0",
    "FILE": "3484340",
    "TLE_LINE0": "0 HAIYANG 2D",
    "TLE_LINE1": "1 48621U 21043A   22157.87683473 -.00000028  00000-0  48214-4 0  9998",
    "TLE_LINE2": "2 48621  65.9983   7.7597 0010581 278.7270  81.2598 13.83362196 53076",
    "OBJECT_ID": "2021-043A",
    "OBJECT_NUMBER": "48621",
    "SEMIMAJOR_AXIS": "7330.123",
    "PERIOD": "104.094",
    "APOGEE": "959.744",
    "PERIGEE": "944.232",
    "DECAYED": "0"
  },
  {
    "COMMENT": "GENERATED VIA SPACETRACK.ORG API",
    "ORIGINATOR": "18 SPCS",
    "NORAD_CAT_ID": "48621",
    "OBJECT_NAME": "HAIYANG 2D",
    "OBJECT_TYPE": "PAYLOAD",
    "CLASSIFICATION_TYPE": "U",
    "INTLDES": "21043A",
    "EPOCH": "2022-06-06 21:02:38",
    "EPOCH_MICROSECONDS": "520672",
    "MEAN_MOTION": "13.83362196",
    "ECCENTRICITY": "0.0010581",
    "INCLINATION": "65.9983",
    "RA_OF_ASC_NODE": "7.7597",
    "ARG_OF_PERICENTER": "278.727",
    "MEAN_ANOMALY": "81.2598",
    "EPHEMERIS_TYPE": "0",
    "ELEMENT_SET_NO": "999",
    "REV_AT_EPOCH": "5307",
    "BSTAR": "0.000048214",
    "MEAN_MOTION_DOT": "-0.00000028",
    "MEAN_MOTION_DDOT": "0",
    "FILE": "3484350",
    "TLE_LINE0": "0 HAIYANG 2D",
    "TLE_LINE1": "1 48621U 21043A   22157.87683473 -.00000028  00000-0  48214-4 0  9998",
    "TLE_LINE2": "2 48621  65.9983   7.7597 0010581 278.7270  81.2598 13.83362196 53076",
    "OBJECT_ID": "2021-043A",
    "OBJECT_NUMBER": "48621",
    "SEMIMAJOR_AXIS": "7330.123",
    "PERIOD": "104.094",
    "APOGEE": "959.744",
    "PERIGEE": "944.232",
    "DECAYED": "0"
  },
  {
    "COMMENT": "GENERATED VIA SPACETRACK.ORG API",
    "ORIGINATOR": "18 SPCS",
    "NORAD_CAT_ID": "48621",
    "OBJECT_NAME": "HAIYANG 2D",
    "OBJECT_TYPE": "PAYLOAD",
    "CLASSIFICATION_TYPE": "U",
    "INTLDES": "21043A",
    "EPOCH": "2022-06-07 00:30:51",
    "EPOCH_MICROSECONDS": "165792",
    "MEAN_MOTION": "13.83362201",
    "ECCENTRICITY": "0.0010586",
    "INCLINATION": "65.9983",
    "RA_OF_ASC_NODE": "7.3998",
    "ARG_OF_PERICENTER": "278.7468",
    "MEAN_ANOMALY": "81.2399",
    "EPHEMERIS_TYPE": "0",
    "ELEMENT_SET_NO": "999",
    "REV_AT_EPOCH": "5309",
    "BSTAR": "0.000047555",
    "MEAN_MOTION_DOT": "-0.00000029",
    "MEAN_MOTION_DDOT": "0",
    "FILE": "3484600",
    "TLE_LINE0": "0 HAIYANG 2D",
    "TLE_LINE1": "1 48621U 21043A   22158.02142553 -.00000029  00000-0  47555-4 0  9993",
    "TLE_LINE2": "2 48621  65.9983   7.3998 0010586 278.7468  81.2399 13.83362201 53099",
    "OBJECT_ID": "2021-043A",
    "OBJECT_NUMBER": "48621",
    "SEMIMAJOR_AXIS": "7330.123",
    "PERIOD": "104.094",
    "APOGEE": "959.747",
    "PERIGEE": "944.228",
    "DECAYED": "0"
  },
  {
    "COMMENT": "GENERATED VIA SPACETRACK.ORG API",
    "ORIGINATOR": "18 SPCS",
    "NORAD_CAT_ID": "48621",
    "OBJECT_NAME": "HAIYANG 2D",
    "OBJECT_TYPE": "PAYLOAD",
    "CLASSIFICATION_TYPE": "U",
    "INTLDES": "21043A",
    "EPOCH": "2022-06-07 10:55:29",
    "EPOCH_MICROSECONDS": "92512",
    "MEAN_MOTION": "13.83362215",
    "ECCENTRICITY": "0.0010602",
    "INCLINATION": "65.9981",
    "RA_OF_ASC_NODE": "6.3198",
    "ARG_OF_PERICENTER": "278.5841",
    "MEAN_ANOMALY": "81.4024",
    "EPHEMERIS_TYPE": "0",
    "ELEMENT_SET_NO": "999",
    "REV_AT_EPOCH": "5315",
    "BSTAR": "0.000044941",
    "MEAN_MOTION_DOT": "-0.00000032",
    "MEAN_MOTION_DDOT": "0",
    "FILE": "3484893",
    "TLE_LINE0": "0 HAIYANG 2D",
    "TLE_LINE1": "1 48621U 21043A   22158.45519783 -.00000032  00000-0  44941-4 0  9993",
    "TLE_LINE2": "2 48621  65.9981   6.3198 0010602 278.5841  81.4024 13.83362215 53159",
    "OBJECT_ID": "2021-043A",
    "OBJECT_NUMBER": "48621",
    "SEMIMAJOR_AXIS": "7330.123",
    "PERIOD": "104.094",
    "APOGEE": "959.759",
    "PERIGEE": "944.216",
    "DECAYED": "0"
  },
  {
    "COMMENT": "GENERATED VIA SPACETRACK.ORG API",
    "ORIGINATOR": "18 SPCS",
    "NORAD_CAT_ID": "48621",
    "OBJECT_NAME": "HAIYANG 2D",
    "OBJECT_TYPE": "PAYLOAD",
    "CLASSIFICATION_TYPE": "U",
    "INTLDES": "21043A",
    "EPOCH": "2022-06-07 10:55:29",
    "EPOCH_MICROSECONDS": "92512",
    "MEAN_MOTION": "13.83362215",
    "ECCENTRICITY": "0.0010602",
    "INCLINATION": "65.9981",
    "RA_OF_ASC_NODE": "6.3198",
    "ARG_OF_PERICENTER": "278.5841",
    "MEAN_ANOMALY": "81.4024",
    "EPHEMERIS_TYPE": "0",
    "ELEMENT_SET_NO": "999",
    "REV_AT_EPOCH": "5315",
    "BSTAR": "0.000044941",
    "MEAN_MOTION_DOT": "-0.00000032",
    "MEAN_MOTION_DDOT": "0",
    "FILE": "3484919",
    "TLE_LINE0": "0 HAIYANG 2D",
    "TLE_LINE1": "1 48621U 21043A   22158.45519783 -.00000032  00000-0  44941-4 0  9993",
    "TLE_LINE2": "2 48621  65.9981   6.3198 0010602 278.5841  81.4024 13.83362215 53159",
    "OBJECT_ID": "2021-043A",
    "OBJECT_NUMBER": "48621",
    "SEMIMAJOR_AXIS": "7330.123",
    "PERIOD": "104.094",
    "APOGEE": "959.759",
    "PERIGEE": "944.216",
    "DECAYED": "0"
  },
  {
    "COMMENT": "GENERATED VIA SPACETRACK.ORG API",
    "ORIGINATOR": "18 SPCS",
    "NORAD_CAT_ID": "48621",
    "OBJECT_NAME": "HAIYANG 2D",
    "OBJECT_TYPE": "PAYLOAD",
    "CLASSIFICATION_TYPE": "U",
    "INTLDES": "21043A",
    "EPOCH": "2022-06-07 19:36:00",
    "EPOCH_MICROSECONDS": "710496",
    "MEAN_MOTION": "13.83362135",
    "ECCENTRICITY": "0.0010592",
    "INCLINATION": "65.9981",
    "RA_OF_ASC_NODE": "5.4199",
    "ARG_OF_PERICENTER": "278.4001",
    "MEAN_ANOMALY": "81.5858",
    "EPHEMERIS_TYPE": "0",
    "ELEMENT_SET_NO": "999",
    "REV_AT_EPOCH": "5320",
    "BSTAR": "0.000037772",
    "MEAN_MOTION_DOT": "-0.0000004",
    "MEAN_MOTION_DDOT": "0",
    "FILE": "3485129",
    "TLE_LINE0": "0 HAIYANG 2D",
    "TLE_LINE1": "1 48621U 21043A   22158.81667489 -.00000040  00000-0  37772-4 0  9993",
    "TLE_LINE2": "2 48621  65.9981   5.4199 0010592 278.4001  81.5858 13.83362135 53208",
    "OBJECT_ID": "2021-043A",
    "OBJECT_NUMBER": "48621",
    "SEMIMAJOR_AXIS": "7330.123",
    "PERIOD": "104.094",
    "APOGEE": "959.752",
    "PERIGEE": "944.224",
    "DECAYED": "0"
  }
]